[{"OBJECT_NAME":"HST","OBJECT_ID":"1990-037B","EPOCH":"2026-03-15T02:20:10.455072","MEAN_MOTION":15.29577841,"ECCENTRICITY":0.00017548,"INCLINATION":28.4724,"RA_OF_ASC_NODE":3.1083,"ARG_OF_PERICENTER":179.9846,"MEAN_ANOMALY":180.075,"EPHEMERIS_TYPE":0,"CLASSIFICATION_TYPE":"U","NORAD_CAT_ID":20580,"ELEMENT_SET_NO":999,"REV_AT_EPOCH":77414,"BSTAR":0.00030179876,"MEAN_MOTION_DOT":9.139e-5,"MEAN_MOTION_DDOT":0},{"OBJECT_NAME":"POLAR","OBJECT_ID":"1996-013A","EPOCH":"2026-03-15T01:40:31.384416","MEAN_MOTION":1.29845778,"ECCENTRICITY":0.63750419,"INCLINATION":79.7578,"RA_OF_ASC_NODE":228.1299,"ARG_OF_PERICENTER":212.2787,"MEAN_ANOMALY":84.3609,"EPHEMERIS_TYPE":0,"CLASSIFICATION_TYPE":"U","NORAD_CAT_ID":23802,"ELEMENT_SET_NO":999,"REV_AT_EPOCH":14363,"BSTAR":0,"MEAN_MOTION_DOT":2.24e-6,"MEAN_MOTION_DDOT":0},{"OBJECT_NAME":"SWAS","OBJECT_ID":"1998-071A","EPOCH":"2026-03-15T05:39:46.227744","MEAN_MOTION":15.08935312,"ECCENTRICITY":0.00044836,"INCLINATION":69.8952,"RA_OF_ASC_NODE":109.6792,"ARG_OF_PERICENTER":2.2128,"MEAN_ANOMALY":357.9055,"EPHEMERIS_TYPE":0,"CLASSIFICATION_TYPE":"U","NORAD_CAT_ID":25560,"ELEMENT_SET_NO":999,"REV_AT_EPOCH":48309,"BSTAR":0.00024701464,"MEAN_MOTION_DOT":3.805e-5,"MEAN_MOTION_DDOT":0},{"OBJECT_NAME":"CXO","OBJECT_ID":"1999-040B","EPOCH":"2026-03-17T19:41:22.009632","MEAN_MOTION":0.37802383,"ECCENTRICITY":0.79864571,"INCLINATION":54.6484,"RA_OF_ASC_NODE":119.4425,"ARG_OF_PERICENTER":310.6142,"MEAN_ANOMALY":0.4584,"EPHEMERIS_TYPE":0,"CLASSIFICATION_TYPE":"U","NORAD_CAT_ID":25867,"ELEMENT_SET_NO":999,"REV_AT_EPOCH":1697,"BSTAR":0,"MEAN_MOTION_DOT":1.113e-5,"MEAN_MOTION_DDOT":0},{"OBJECT_NAME":"XMM-NEWTON","OBJECT_ID":"1999-066A","EPOCH":"2026-03-16T14:27:53.069184","MEAN_MOTION":0.50127937,"ECCENTRICITY":0.47088578,"INCLINATION":64.9536,"RA_OF_ASC_NODE":284.1881,"ARG_OF_PERICENTER":66.5346,"MEAN_ANOMALY":0.0007,"EPHEMERIS_TYPE":0,"CLASSIFICATION_TYPE":"U","NORAD_CAT_ID":25989,"ELEMENT_SET_NO":999,"REV_AT_EPOCH":2254,"BSTAR":0,"MEAN_MOTION_DOT":1.94e-6,"MEAN_MOTION_DDOT":0},{"OBJECT_NAME":"TERRA","OBJECT_ID":"1999-068A","EPOCH":"2026-03-15T06:19:25.401216","MEAN_MOTION":14.61021128,"ECCENTRICITY":0.00030404,"INCLINATION":97.9582,"RA_OF_ASC_NODE":127.485,"ARG_OF_PERICENTER":139.1395,"MEAN_ANOMALY":286.4754,"EPHEMERIS_TYPE":0,"CLASSIFICATION_TYPE":"U","NORAD_CAT_ID":25994,"ELEMENT_SET_NO":999,"REV_AT_EPOCH":39589,"BSTAR":0.0001033874,"MEAN_MOTION_DOT":4.63e-6,"MEAN_MOTION_DDOT":0},{"OBJECT_NAME":"CLUSTER II-FM7 (SAMBA)","OBJECT_ID":"2000-041A","EPOCH":"2026-03-13T04:26:23.008992","MEAN_MOTION":0.44824009,"ECCENTRICITY":0.892102,"INCLINATION":149.0994,"RA_OF_ASC_NODE":35.5717,"ARG_OF_PERICENTER":251.787,"MEAN_ANOMALY":0.4837,"EPHEMERIS_TYPE":0,"CLASSIFICATION_TYPE":"U","NORAD_CAT_ID":26410,"ELEMENT_SET_NO":999,"REV_AT_EPOCH":1987,"BSTAR":0,"MEAN_MOTION_DOT":9.157e-5,"MEAN_MOTION_DDOT":0},{"OBJECT_NAME":"CLUSTER II-FM8 (TANGO)","OBJECT_ID":"2000-045B","EPOCH":"2026-02-18T01:30:32.809536","MEAN_MOTION":0.44405995,"ECCENTRICITY":0.88900451,"INCLINATION":149.0711,"RA_OF_ASC_NODE":33.5376,"ARG_OF_PERICENTER":249.457,"MEAN_ANOMALY":359.4916,"EPHEMERIS_TYPE":0,"CLASSIFICATION_TYPE":"U","NORAD_CAT_ID":26464,"ELEMENT_SET_NO":999,"REV_AT_EPOCH":1976,"BSTAR":0,"MEAN_MOTION_DOT":4.776e-5,"MEAN_MOTION_DDOT":0},{"OBJECT_NAME":"ODIN","OBJECT_ID":"2001-007A","EPOCH":"2026-03-15T01:18:35.264448","MEAN_MOTION":15.59220169,"ECCENTRICITY":0.00049907,"INCLINATION":97.4068,"RA_OF_ASC_NODE":110.322,"ARG_OF_PERICENTER":129.9272,"MEAN_ANOMALY":230.2423,"EPHEMERIS_TYPE":0,"CLASSIFICATION_TYPE":"U","NORAD_CAT_ID":26702,"ELEMENT_SET_NO":999,"REV_AT_EPOCH":37467,"BSTAR":0.00070098829,"MEAN_MOTION_DOT":0.00055174,"MEAN_MOTION_DDOT":0},{"OBJECT_NAME":"TIMED","OBJECT_ID":"2001-055B","EPOCH":"2026-03-15T01:35:21.465888","MEAN_MOTION":14.95042082,"ECCENTRICITY":0.00029848,"INCLINATION":74.0665,"RA_OF_ASC_NODE":64.4972,"ARG_OF_PERICENTER":268.9424,"MEAN_ANOMALY":91.1419,"EPHEMERIS_TYPE":0,"CLASSIFICATION_TYPE":"U","NORAD_CAT_ID":26998,"ELEMENT_SET_NO":999,"REV_AT_EPOCH":31675,"BSTAR":0.00016253317,"MEAN_MOTION_DOT":1.74e-5,"MEAN_MOTION_DDOT":0},{"OBJECT_NAME":"CORIOLIS","OBJECT_ID":"2003-001A","EPOCH":"2026-03-14T21:56:24.644832","MEAN_MOTION":14.19915036,"ECCENTRICITY":0.00149627,"INCLINATION":98.716,"RA_OF_ASC_NODE":82.2282,"ARG_OF_PERICENTER":122.2955,"MEAN_ANOMALY":237.9673,"EPHEMERIS_TYPE":0,"CLASSIFICATION_TYPE":"U","NORAD_CAT_ID":27640,"ELEMENT_SET_NO":999,"REV_AT_EPOCH":20084,"BSTAR":0.00010402551,"MEAN_MOTION_DOT":1.78e-6,"MEAN_MOTION_DDOT":0},{"OBJECT_NAME":"SORCE","OBJECT_ID":"2003-004A","EPOCH":"2026-03-15T06:43:22.876896","MEAN_MOTION":15.03143696,"ECCENTRICITY":0.00156695,"INCLINATION":39.9905,"RA_OF_ASC_NODE":77.2333,"ARG_OF_PERICENTER":98.3903,"MEAN_ANOMALY":261.8668,"EPHEMERIS_TYPE":0,"CLASSIFICATION_TYPE":"U","NORAD_CAT_ID":27651,"ELEMENT_SET_NO":999,"REV_AT_EPOCH":25776,"BSTAR":0.00029612385,"MEAN_MOTION_DOT":3.931e-5,"MEAN_MOTION_DDOT":0},{"OBJECT_NAME":"MOST","OBJECT_ID":"2003-031D","EPOCH":"2026-03-15T07:14:00.873600","MEAN_MOTION":14.21300924,"ECCENTRICITY":0.00102346,"INCLINATION":98.7081,"RA_OF_ASC_NODE":83.3259,"ARG_OF_PERICENTER":157.8128,"MEAN_ANOMALY":202.3494,"EPHEMERIS_TYPE":0,"CLASSIFICATION_TYPE":"U","NORAD_CAT_ID":27843,"ELEMENT_SET_NO":999,"REV_AT_EPOCH":17737,"BSTAR":6.5036076e-5,"MEAN_MOTION_DOT":9.8e-7,"MEAN_MOTION_DDOT":0},{"OBJECT_NAME":"SCISAT 1","OBJECT_ID":"2003-036A","EPOCH":"2026-03-15T05:18:06.223968","MEAN_MOTION":14.81324954,"ECCENTRICITY":0.00058349,"INCLINATION":73.9328,"RA_OF_ASC_NODE":358.0269,"ARG_OF_PERICENTER":83.3684,"MEAN_ANOMALY":276.8156,"EPHEMERIS_TYPE":0,"CLASSIFICATION_TYPE":"U","NORAD_CAT_ID":27858,"ELEMENT_SET_NO":999,"REV_AT_EPOCH":21753,"BSTAR":0.00012364634,"MEAN_MOTION_DOT":9.29e-6,"MEAN_MOTION_DDOT":0},{"OBJECT_NAME":"SWIFT","OBJECT_ID":"2004-047A","EPOCH":"2026-03-14T23:34:37.407360","MEAN_MOTION":15.59791571,"ECCENTRICITY":0.00043322,"INCLINATION":20.5518,"RA_OF_ASC_NODE":186.906,"ARG_OF_PERICENTER":92.0555,"MEAN_ANOMALY":268.0386,"EPHEMERIS_TYPE":0,"CLASSIFICATION_TYPE":"U","NORAD_CAT_ID":28485,"ELEMENT_SET_NO":999,"REV_AT_EPOCH":17209,"BSTAR":0.00062495817,"MEAN_MOTION_DOT":0.00053453,"MEAN_MOTION_DDOT":0},{"OBJECT_NAME":"HINODE (SOLAR-B)","OBJECT_ID":"2006-041A","EPOCH":"2026-03-15T07:05:06.637344","MEAN_MOTION":14.68483418,"ECCENTRICITY":0.00165699,"INCLINATION":98.0618,"RA_OF_ASC_NODE":91.8121,"ARG_OF_PERICENTER":222.6274,"MEAN_ANOMALY":137.3647,"EPHEMERIS_TYPE":0,"CLASSIFICATION_TYPE":"U","NORAD_CAT_ID":29479,"ELEMENT_SET_NO":999,"REV_AT_EPOCH":4109,"BSTAR":0.00012834928,"MEAN_MOTION_DOT":6.96e-6,"MEAN_MOTION_DDOT":0},{"OBJECT_NAME":"SHIJIAN-6 02A (SJ-6 02A)","OBJECT_ID":"2006-046A","EPOCH":"2026-03-15T07:44:45.195648","MEAN_MOTION":15.15802294,"ECCENTRICITY":0.00047442,"INCLINATION":97.6494,"RA_OF_ASC_NODE":114.7065,"ARG_OF_PERICENTER":101.3521,"MEAN_ANOMALY":258.8245,"EPHEMERIS_TYPE":0,"CLASSIFICATION_TYPE":"U","NORAD_CAT_ID":29505,"ELEMENT_SET_NO":999,"REV_AT_EPOCH":5804,"BSTAR":0.0006623604,"MEAN_MOTION_DOT":0.00012597,"MEAN_MOTION_DDOT":0}]
