HST                     
1 20580U 90037B   26074.09734323  .00009139  00000+0  30180-3 0  9990
2 20580  28.4724   3.1083 0001754 179.9846 180.0750 15.29577841774143
POLAR                   
1 23802U 96013A   26074.06980769  .00000224  00000+0  00000+0 0  9994
2 23802  79.7578 228.1299 6375041 212.2787  84.3609  1.29845778143636
SWAS                    
1 25560U 98071A   26074.23595171  .00003805  00000+0  24701-3 0  9997
2 25560  69.8952 109.6792 0004483   2.2128 357.9055 15.08935312483092
CXO                     
1 25867U 99040B   26076.82039363  .00001113  00000+0  00000+0 0  9999
2 25867  54.6484 119.4425 7986457 310.6142   0.4584  0.37802383 16978
XMM-NEWTON              
1 25989U 99066A   26075.60269756  .00000194  00000+0  00000+0 0  9996
2 25989  64.9536 284.1881 4708857  66.5346   0.0007  0.50127937 22543
TERRA                   
1 25994U 99068A   26074.26348844  .00000463  00000+0  10339-3 0  9990
2 25994  97.9582 127.4850 0003040 139.1395 286.4754 14.61021128395892
CLUSTER II-FM7 (SAMBA)  
1 26410U 00041A   26072.18498853  .00009157  00000+0  00000+0 0  9991
2 26410 149.0994  35.5717 8921020 251.7870   0.4837  0.44824009 19879
CLUSTER II-FM8 (TANGO)  
1 26464U 00045B   26049.06287974  .00004776  00000+0  00000+0 0  9997
2 26464 149.0711  33.5376 8890045 249.4570 359.4916  0.44405995 19769
ODIN                    
1 26702U 01007A   26074.05457482  .00055174  00000+0  70099-3 0  9998
2 26702  97.4068 110.3220 0004990 129.9272 230.2423 15.59220169374679
TIMED                   
1 26998U 01055B   26074.06622067  .00001740  00000+0  16253-3 0  9994
2 26998  74.0665  64.4972 0002984 268.9424  91.1419 14.95042082316756
CORIOLIS                
1 27640U 03001A   26073.91417413  .00000178  00000+0  10403-3 0  9997
2 27640  98.7160  82.2282 0014962 122.2955 237.9673 14.19915036200844
SORCE                   
1 27651U 03004A   26074.28012589  .00003931  00000+0  29612-3 0  9990
2 27651  39.9905  77.2333 0015669  98.3903 261.8668 15.03143696257764
MOST                    
1 27843U 03031D   26074.30139900  .00000098  00000+0  65036-4 0  9995
2 27843  98.7081  83.3259 0010234 157.8128 202.3494 14.21300924177376
SCISAT 1                
1 27858U 03036A   26074.22090537  .00000929  00000+0  12365-3 0  9998
2 27858  73.9328 358.0269 0005834  83.3684 276.8156 14.81324954217533
SWIFT                   
1 28485U 04047A   26073.98237740  .00053453  00000+0  62496-3 0  9999
2 28485  20.5518 186.9060 0004332  92.0555 268.0386 15.59791571172090
HINODE (SOLAR-B)        
1 29479U 06041A   26074.29521571  .00000696  00000+0  12835-3 0  9995
2 29479  98.0618  91.8121 0016569 222.6274 137.3647 14.68483418 41091
SHIJIAN-6 02A (SJ-6 02A)
1 29505U 06046A   26074.32274532  .00012597  00000+0  66236-3 0  9993
2 29505  97.6494 114.7065 0004744 101.3521 258.8245 15.15802294 58046
